{
  "norad_id": 59550,
  "name": "STARLINK-31741",
  "history": [
    {
      "epoch": "2026-03-28T19:40:33.600576",
      "apogee_km": 484.00019721944864,
      "perigee_km": 482.1059598625661,
      "latitude_deg": -19.463073988993777,
      "longitude_deg": -146.29599936003797,
      "semi_major_axis_km": 6861.190078541007,
      "eccentricity": 0.00013804,
      "inclination_deg": 42.9998,
      "raan_deg": 235.1761,
      "arg_perigee_deg": 262.0425,
      "mean_anomaly_deg": 98.027,
      "mean_motion_rev_day": 15.2757867
    }
  ]
}